KUIPER-00125            
1 65954U 25228H   25361.14497005  .00043082  00000+0  11675-2 0  9993
2 65954  51.8805 310.8544 0006746  75.8568 284.3168 15.37204079 12637
KUIPER-00126            
1 65955U 25228J   25361.50002315 -.00035666  00000+0 -45763-2 0  9996
2 65955  51.9000 319.8441 0000152  51.4233  93.0605 14.80818714  3258
KUIPER-00127            
1 65956U 25228K   25361.50002315 -.00018949  00000+0 -15755-2 0  9990
2 65956  51.8957 316.5789 0005935 108.6907  24.2604 14.97847261  4360
KUIPER-00128            
1 65957U 25228L   25361.50002315 -.00700393  00000+0 -65479-1 0  9999
2 65957  51.8988 313.1920 0003700  95.2433 141.0135 14.96095815  4139
KUIPER-00129            
1 65958U 25228M   25361.50002315 -.00036424  00000+0 -19455-2 0  9991
2 65958  51.8827 310.3851 0002856  53.3499 241.8649 15.14527451  5117
KUIPER-00130            
1 65959U 25228N   25361.50002315 -.00887435  00000+0 -64382-1 0  9996
2 65959  51.8993 311.5683 0006260  90.0185 346.2115 15.06272843  5347
KUIPER-00134            
1 65960U 25228P   25361.16762614  .00044392  00000+0  12483-2 0  9996
2 65960  51.8788 310.9974 0007600  67.6037 292.5754 15.36035222 12635
KUIPER-00135            
1 65961U 25228Q   25361.50002315 -.00922022  00000+0 -66134-1 0  9998
2 65961  51.8938 311.9039 0006462  82.3946 108.8867 15.06798776  5761
